NORAD_CAT_ID,OBJECT_NAME,OBJECT_TYPE,EPOCH,MEAN_MOTION,ECCENTRICITY,INCLINATION,RA_OF_ASC_NODE,ARG_OF_PERICENTER,MEAN_ANOMALY,BSTAR,MEAN_MOTION_DOT,MEAN_MOTION_DDOT,TLE_LINE0,TLE_LINE1,TLE_LINE2,SEMIMAJOR_AXIS,PERIOD,APOGEE,PERIGEE,DECAYED
53588.0,STARLINK-4691,PAYLOAD,2024-03-14 18:34:08,15.08846142,0.0001311,53.2141,258.6392,97.6211,262.4931,-2.4145e-05,-6.72e-06,0.0,0 STARLINK-4691,1 53588U 22104A   24074.77370579 -.00000672  00000-0 -24145-4 0  9997,2 53588  53.2141 258.6392 0001311  97.6211 262.4931 15.08846142 85485,6917.862,95.437,540.634,538.82,0.0
53588.0,STARLINK-4691,PAYLOAD,2024-03-14 21:44:54,15.08843935,0.00012,53.2143,258.0456,91.1558,268.9572,-2.8954e-05,-7.49e-06,0.0,0 STARLINK-4691,1 53588U 22104A   24074.90618720 -.00000749  00000-0 -28954-4 0  9992,2 53588  53.2143 258.0456 0001200  91.1558 268.9572 15.08843935 86673,6917.868,95.437,540.564,538.903,0.0
53588.0,STARLINK-4691,PAYLOAD,2024-03-15 21:35:42,15.08836591,0.0001507,53.2149,253.5845,104.3933,255.7227,0.00023853,3.51e-05,0.0,0 STARLINK-4691,1 53588U 22104A   24075.89979554  .00003510  00000-0  23853-3 0  9995,2 53588  53.2149 253.5845 0001507 104.3933 255.7227 15.08836591 86823,6917.891,95.438,540.798,538.713,0.0
53588.0,STARLINK-4691,PAYLOAD,2024-03-16 11:54:10,15.08831795,0.0001304,53.2139,250.9079,99.4026,260.7114,0.00036408,5.51e-05,0.0,0 STARLINK-4691,1 53588U 22104A   24076.49595977  .00005510  00000-0  36408-3 0  9997,2 53588  53.2139 250.9079 0001304  99.4026 260.7114 15.08831795 86916,6917.905,95.438,540.673,538.868,0.0
53588.0,STARLINK-4691,PAYLOAD,2024-03-16 18:15:43,15.08840073,0.0001397,53.2161,249.7201,101.9909,258.1239,6.8304e-05,7.99e-06,0.0,0 STARLINK-4691,1 53588U 22104A   24076.76091527  .00000799  00000-0  68304-4 0  9994,2 53588  53.2161 249.7201 0001397 101.9909 258.1239 15.08840073 86957,6917.88,95.438,540.712,538.779,0.0
53588.0,STARLINK-4691,PAYLOAD,2024-03-17 11:44:57,15.08837525,0.000138,53.2165,246.449,93.9243,266.1907,7.6159e-05,9.24e-06,0.0,0 STARLINK-4691,1 53588U 22104A   24077.48955752  .00000924  00000-0  76159-4 0  9990,2 53588  53.2165 246.4490 0001380  93.9243 266.1907 15.08837525 85899,6917.888,95.438,540.708,538.798,0.0
53588.0,STARLINK-4691,PAYLOAD,2024-03-17 18:06:30,15.08837568,0.0001377,53.2165,245.2595,92.0683,268.0466,6.3467e-05,7.22e-06,0.0,0 STARLINK-4691,1 53588U 22104A   24077.75451763  .00000722  00000-0  63467-4 0  9997,2 53588  53.2165 245.2595 0001377  92.0683 268.0466 15.08837568 87100,6917.888,95.438,540.705,538.8,0.0
53588.0,STARLINK-4691,PAYLOAD,2024-03-18 11:35:44,15.08837138,0.0001392,53.2166,241.9886,92.154,267.9612,7.4226e-05,8.93e-06,0.0,0 STARLINK-4691,1 53588U 22104A   24078.48315891  .00000893  00000-0  74226-4 0  9993,2 53588  53.2166 241.9886 0001392  92.1540 267.9612 15.08837138 87213,6917.889,95.438,540.717,538.791,0.0
53588.0,STARLINK-4691,PAYLOAD,2024-03-19 20:58:50,15.08845558,0.0001419,53.2174,235.742,85.8434,274.2721,0.00013489,1.86e-05,0.0,0 STARLINK-4691,1 53588U 22104A   24079.87419557  .00001860  00000-0  13489-3 0  9999,2 53588  53.2174 235.7420 0001419  85.8434 274.2721 15.08845558 86258,6917.863,95.437,540.71,538.747,0.0
53588.0,STARLINK-4691,PAYLOAD,2024-03-20 09:41:56,15.08836875,0.0001663,53.2171,233.3676,95.073,265.0452,8.7303e-05,1.102e-05,0.0,0 STARLINK-4691,1 53588U 22104A   24080.40412404  .00001102  00000-0  87303-4 0  9990,2 53588  53.2171 233.3676 0001663  95.0730 265.0452 15.08836875 86335,6917.89,95.438,540.905,538.604,0.0
53588.0,STARLINK-4691,PAYLOAD,2024-03-20 17:38:52,15.08833637,0.0001348,53.2159,231.8796,93.6906,266.424,1.8723e-05,1e-07,0.0,0 STARLINK-4691,1 53588U 22104A   24080.73532456  .00000010  00000-0  18723-4 0  9993,2 53588  53.2159 231.8796 0001348  93.6906 266.4240 15.08833637 87554,6917.9,95.438,540.697,538.832,0.0
53588.0,STARLINK-4691,PAYLOAD,2024-03-21 14:18:52,15.08844574,0.0001268,53.216,228.0129,104.6017,255.5116,0.00013191,1.812e-05,0.0,0 STARLINK-4691,1 53588U 22104A   24081.59644053  .00001812  00000-0  13191-3 0  9999,2 53588  53.2160 228.0129 0001268 104.6017 255.5116 15.08844574 87688,6917.866,95.437,540.609,538.854,0.0
53588.0,STARLINK-4691,PAYLOAD,2024-03-21 17:29:38,15.08850387,0.0001328,53.2159,227.419,89.0484,271.066,0.00023417,3.442e-05,0.0,0 STARLINK-4691,1 53588U 22104A   24081.72891925  .00003442  00000-0  23417-3 0  9999,2 53588  53.2159 227.4190 0001328  89.0484 271.0660 15.08850387 86537,6917.849,95.437,540.632,538.795,0.0
53588.0,STARLINK-4691,PAYLOAD,2024-03-22 14:09:39,15.08844795,0.0001357,53.2151,223.5542,94.2702,265.8445,0.00027391,4.075e-05,0.0,0 STARLINK-4691,1 53588U 22104A   24082.59004182  .00004075  00000-0  27391-3 0  9994,2 53588  53.2151 223.5542 0001357  94.2702 265.8445 15.08844795 87832,6917.866,95.437,540.669,538.792,0.0
53588.0,STARLINK-4691,PAYLOAD,2024-03-22 15:45:02,15.08846333,0.0001372,53.2149,223.2561,94.9646,265.1503,0.00026794,3.98e-05,0.0,0 STARLINK-4691,1 53588U 22104A   24082.65628091  .00003980  00000-0  26794-3 0  9992,2 53588  53.2149 223.2561 0001372  94.9646 265.1503 15.08846333 86677,6917.861,95.437,540.675,538.777,0.0
53588.0,STARLINK-4691,PAYLOAD,2024-03-23 12:25:03,15.08839908,0.0001619,53.2157,219.3908,83.3659,276.7518,-2.3857e-05,-6.68e-06,0.0,0 STARLINK-4691,1 53588U 22104A   24083.51740399 -.00000668  00000-0 -23857-4 0  9994,2 53588  53.2157 219.3908 0001619  83.3659 276.7518 15.08839908 86806,6917.881,95.438,540.866,538.626,0.0
53588.0,STARLINK-4691,PAYLOAD,2024-03-23 18:46:37,15.08810044,0.0001403,53.2163,218.1987,93.3819,266.7333,0.00042751,6.517e-05,0.0,0 STARLINK-4691,1 53588U 22104A   24083.78237294  .00006517  00000-0  42751-3 0  9998,2 53588  53.2163 218.1987 0001403  93.3819 266.7333 15.08810044 86845,6917.972,95.439,540.808,538.866,0.0
53588.0,STARLINK-4691,PAYLOAD,2024-03-24 12:15:51,15.08833054,0.0001694,53.2167,214.9257,110.6308,249.4866,3.4128e-05,2.55e-06,0.0,0 STARLINK-4691,1 53588U 22104A   24084.51100942  .00000255  00000-0  34128-4 0  9992,2 53588  53.2167 214.9257 0001694 110.6308 249.4866 15.08833054 86958,6917.902,95.438,540.939,538.595,0.0
53588.0,STARLINK-4691,PAYLOAD,2024-03-24 13:51:14,15.08834144,0.0001666,53.2166,214.6285,104.8818,255.2359,3.8385e-05,3.23e-06,0.0,0 STARLINK-4691,1 53588U 22104A   24084.57724902  .00000323  00000-0  38385-4 0  9991,2 53588  53.2166 214.6285 0001666 104.8818 255.2359 15.08834144 88130,6917.898,95.438,540.916,538.611,0.0
53588.0,STARLINK-4691,PAYLOAD,2024-03-24 18:37:23,15.08845538,0.0001618,53.2168,213.7329,113.5818,246.5344,-2.7124e-05,-7.2e-06,0.0,0 STARLINK-4691,1 53588U 22104A   24084.77596260 -.00000720  00000-0 -27124-4 0  9999,2 53588  53.2168 213.7329 0001618 113.5818 246.5344 15.08845538 86993,6917.863,95.437,540.848,538.609,0.0
53588.0,STARLINK-4691,PAYLOAD,2024-03-25 00:58:54,15.08862763,0.0001604,53.2165,212.551,67.5884,292.5278,0.00026366,3.913e-05,0.0,0 STARLINK-4691,1 53588U 22104A   24085.04090668  .00003913  00000-0  26366-3 0  9992,2 53588  53.2165 212.5510 0001604  67.5884 292.5278 15.08862763 87037,6917.811,95.436,540.785,538.566,0.0
53588.0,STARLINK-4691,PAYLOAD,2024-03-25 12:06:38,15.08832218,0.0001678,53.2176,210.4723,106.6281,253.4896,5.1846e-05,5.37e-06,0.0,0 STARLINK-4691,1 53588U 22104A   24085.50461248  .00000537  00000-0  51846-4 0  9990,2 53588  53.2176 210.4723 0001678 106.6281 253.4896 15.08832218 87101,6917.904,95.438,540.93,538.608,0.0
53588.0,STARLINK-4691,PAYLOAD,2024-03-25 15:17:23,15.08844914,0.0001204,53.2161,209.874,90.3105,269.8025,0.00012764,1.744e-05,0.0,0 STARLINK-4691,1 53588U 22104A   24085.63708164  .00001744  00000-0  12764-3 0  9991,2 53588  53.2161 209.8740 0001204  90.3105 269.8025 15.08844914 87128,6917.865,95.437,540.563,538.897,0.0
53588.0,STARLINK-4691,PAYLOAD,2024-03-26 13:32:49,15.08823693,0.0001216,53.2164,205.7082,95.1028,265.0103,2.7083e-05,1.43e-06,0.0,0 STARLINK-4691,1 53588U 22104A   24086.56446153  .00000143  00000-0  27083-4 0  9994,2 53588  53.2164 205.7082 0001216  95.1028 265.0103 15.08823693 87266,6917.93,95.439,540.636,538.954,0.0
53588.0,STARLINK-4691,PAYLOAD,2024-03-26 15:08:12,15.08822037,0.0001377,53.2171,205.4136,94.1389,265.9761,-4.6866e-06,-3.62e-06,0.0,0 STARLINK-4691,1 53588U 22104A   24086.63070431 -.00000362  00000-0 -46866-5 0  9990,2 53588  53.2171 205.4136 0001377  94.1389 265.9761 15.08822037 88449,6917.935,95.439,540.753,538.848,0.0
53588.0,STARLINK-4691,PAYLOAD,2024-03-27 00:40:31,15.08834659,0.0001345,53.2176,203.628,78.0142,282.1001,1.3411e-05,-7.4e-07,0.0,0 STARLINK-4691,1 53588U 22104A   24087.02813718 -.00000074  00000-0  13411-4 0  9995,2 53588  53.2176 203.6280 0001345  78.0142 282.1001 15.08834659 87335,6917.897,95.438,540.692,538.831,0.0
53588.0,STARLINK-4691,PAYLOAD,2024-03-27 13:23:35,15.08838182,0.0001385,53.2161,201.2504,101.4062,258.7086,8.4077e-05,1.05e-05,0.0,0 STARLINK-4691,1 53588U 22104A   24087.55805349  .00001050  00000-0  84077-4 0  9994,2 53588  53.2161 201.2504 0001385 101.4062 258.7086 15.08838182 88583,6917.886,95.438,540.709,538.793,0.0
53588.0,STARLINK-4691,PAYLOAD,2024-03-27 16:34:21,15.08848397,0.0001301,53.2168,200.6561,105.935,254.1786,0.00017589,2.513e-05,0.0,0 STARLINK-4691,1 53588U 22104A   24087.69052391  .00002513  00000-0  17589-3 0  9998,2 53588  53.2168 200.6561 0001301 105.9350 254.1786 15.08848397 87432,6917.855,95.437,540.62,538.82,0.0
53588.0,STARLINK-4691,PAYLOAD,2024-03-28 11:39:00,15.08830063,0.0001496,53.2183,197.0883,84.6538,275.4625,0.00018337,2.631e-05,0.0,0 STARLINK-4691,1 53588U 22104A   24088.48541890  .00002631  00000-0  18337-3 0  9996,2 53588  53.2183 197.0883 0001496  84.6538 275.4625 15.08830063 87553,6917.911,95.438,540.811,538.741,0.0
53588.0,STARLINK-4691,PAYLOAD,2024-03-28 16:25:09,15.08835895,0.0001483,53.2185,196.1955,87.0807,273.0355,0.00020779,3.02e-05,0.0,0 STARLINK-4691,1 53588U 22104A   24088.68413458  .00003020  00000-0  20779-3 0  9992,2 53588  53.2185 196.1955 0001483  87.0807 273.0355 15.08835895 88752,6917.893,95.438,540.784,538.732,0.0
